[
    {
        "Altitude(m)": 554417.0907642207,
        "Argument of Periapsis(deg)": 0.0,
        "Eccentricity": 0.0,
        "Inclination(deg)": 53.0,
        "Latitude(deg)": 25.652159919542385,
        "Longitude(deg)": -146.06363229114856,
        "Mean Anomaly(deg)": 147.27269999999996,
        "RAAN(deg)": 155.0,
        "Satellite Name": "Starlink Shell 1 691",
        "Satellite Number": 691,
        "Semi-Major Axis(m)": 6931778.249405717,
        "Time(s)": 0
    },
    {
        "Altitude(m)": 554357.0409626813,
        "Argument of Periapsis(deg)": 0.00034857847951123687,
        "Eccentricity": 0.0,
        "Inclination(deg)": 53.0,
        "Latitude(deg)": 25.18193367696821,
        "Longitude(deg)": -145.64363807211797,
        "Mean Anomaly(deg)": 147.89953120355673,
        "RAAN(deg)": 154.99948122992254,
        "Satellite Name": "Starlink Shell 1 691",
        "Satellite Number": 691,
        "Semi-Major Axis(m)": 6931778.249405717,
        "Time(s)": 10
    },
    {
        "Altitude(m)": 554298.5879950427,
        "Argument of Periapsis(deg)": 0.0006971569590224737,
        "Eccentricity": 0.0,
        "Inclination(deg)": 53.0,
        "Latitude(deg)": 24.710251569420837,
        "Longitude(deg)": -145.22717371115186,
        "Mean Anomaly(deg)": 148.52636240711345,
        "RAAN(deg)": 154.99896245984505,
        "Satellite Name": "Starlink Shell 1 691",
        "Satellite Number": 691,
        "Semi-Major Axis(m)": 6931778.249405717,
        "Time(s)": 20
    },
    {
        "Altitude(m)": 554241.7801892969,
        "Argument of Periapsis(deg)": 0.0010457354385337105,
        "Eccentricity": 0.0,
        "Inclination(deg)": 53.0,
        "Latitude(deg)": 24.237154789789788,
        "Longitude(deg)": -144.81414841683974,
        "Mean Anomaly(deg)": 149.15319361067014,
        "RAAN(deg)": 154.99844368976758,
        "Satellite Name": "Starlink Shell 1 691",
        "Satellite Number": 691,
        "Semi-Major Axis(m)": 6931778.249405717,
        "Time(s)": 30
    },
    {
        "Altitude(m)": 554186.6652215038,
        "Argument of Periapsis(deg)": 0.0013943139180449475,
        "Eccentricity": 0.0,
        "Inclination(deg)": 53.0,
        "Latitude(deg)": 23.762683696278664,
        "Longitude(deg)": -144.4044721551204,
        "Mean Anomaly(deg)": 149.7800248142268,
        "RAAN(deg)": 154.99792491969012,
        "Satellite Name": "Starlink Shell 1 691",
        "Satellite Number": 691,
        "Semi-Major Axis(m)": 6931778.249405717,
        "Time(s)": 40
    },
    {
        "Altitude(m)": 554133.2900899777,
        "Argument of Periapsis(deg)": 0.0017428923975561844,
        "Eccentricity": 0.0,
        "Inclination(deg)": 53.0,
        "Latitude(deg)": 23.28687783847844,
        "Longitude(deg)": -143.99805664161454,
        "Mean Anomaly(deg)": 150.40685601778355,
        "RAAN(deg)": 154.99740614961263,
        "Satellite Name": "Starlink Shell 1 691",
        "Satellite Number": 691,
        "Semi-Major Axis(m)": 6931778.249405717,
        "Time(s)": 50
    },
    {
        "Altitude(m)": 554081.7010897821,
        "Argument of Periapsis(deg)": 0.002091470877067421,
        "Eccentricity": 0.0,
        "Inclination(deg)": 53.0,
        "Latitude(deg)": 22.809775982907702,
        "Longitude(deg)": -143.59481481971216,
        "Mean Anomaly(deg)": 151.03368722134033,
        "RAAN(deg)": 154.99688737953517,
        "Satellite Name": "Starlink Shell 1 691",
        "Satellite Number": 691,
        "Semi-Major Axis(m)": 6931778.249405717,
        "Time(s)": 60
    },
    {
        "Altitude(m)": 554031.9437875036,
        "Argument of Periapsis(deg)": 0.0024400493565786582,
        "Eccentricity": 0.0,
        "Inclination(deg)": 53.0,
        "Latitude(deg)": 22.331416138021773,
        "Longitude(deg)": -143.19466033741872,
        "Mean Anomaly(deg)": 151.66051842489696,
        "RAAN(deg)": 154.9963686094577,
        "Satellite Name": "Starlink Shell 1 691",
        "Satellite Number": 691,
        "Semi-Major Axis(m)": 6931778.249405717,
        "Time(s)": 70
    },
    {
        "Altitude(m)": 553984.0629963793,
        "Argument of Periapsis(deg)": 0.002788627836089895,
        "Eccentricity": 0.0,
        "Inclination(deg)": 53.0,
        "Latitude(deg)": 21.85183557869809,
        "Longitude(deg)": -142.79750853596005,
        "Mean Anomaly(deg)": 152.2873496284537,
        "RAAN(deg)": 154.9958498393802,
        "Satellite Name": "Starlink Shell 1 691",
        "Satellite Number": 691,
        "Semi-Major Axis(m)": 6931778.249405717,
        "Time(s)": 80
    },
    {
        "Altitude(m)": 553938.1027517704,
        "Argument of Periapsis(deg)": 0.0031372063156011316,
        "Eccentricity": 0.0,
        "Inclination(deg)": 53.0,
        "Latitude(deg)": 21.371070870196824,
        "Longitude(deg)": -142.4032759245157,
        "Mean Anomaly(deg)": 152.91418083201037,
        "RAAN(deg)": 154.99533106930275,
        "Satellite Name": "Starlink Shell 1 691",
        "Satellite Number": 691,
        "Semi-Major Axis(m)": 6931778.249405717,
        "Time(s)": 90
    },
    {
        "Altitude(m)": 553894.1062869612,
        "Argument of Periapsis(deg)": 0.0034857847951123688,
        "Eccentricity": 0.0,
        "Inclination(deg)": 53.0,
        "Latitude(deg)": 20.889157891603645,
        "Longitude(deg)": -142.0118796540589,
        "Mean Anomaly(deg)": 153.54101203556715,
        "RAAN(deg)": 154.9948122992253,
        "Satellite Name": "Starlink Shell 1 691",
        "Satellite Number": 691,
        "Semi-Major Axis(m)": 6931778.249405717,
        "Time(s)": 100
    },
    {
        "Altitude(m)": 553852.1160093478,
        "Argument of Periapsis(deg)": 0.003834363274623606,
        "Eccentricity": 0.0,
        "Inclination(deg)": 53.0,
        "Latitude(deg)": 20.40613185876483,
        "Longitude(deg)": -141.62323850327647,
        "Mean Anomaly(deg)": 154.16784323912384,
        "RAAN(deg)": 154.9942935291478,
        "Satellite Name": "Starlink Shell 1 691",
        "Satellite Number": 691,
        "Semi-Major Axis(m)": 6931778.249405717,
        "Time(s)": 110
    },
    {
        "Altitude(m)": 553812.1734770046,
        "Argument of Periapsis(deg)": 0.004182941754134842,
        "Eccentricity": 0.0,
        "Inclination(deg)": 53.0,
        "Latitude(deg)": 19.922027346716032,
        "Longitude(deg)": -141.2372723509117,
        "Mean Anomaly(deg)": 154.79467444268056,
        "RAAN(deg)": 154.99377475907033,
        "Satellite Name": "Starlink Shell 1 691",
        "Satellite Number": 691,
        "Semi-Major Axis(m)": 6931778.249405717,
        "Time(s)": 120
    },
    {
        "Altitude(m)": 553774.3193756334,
        "Argument of Periapsis(deg)": 0.004531520233646079,
        "Eccentricity": 0.0,
        "Inclination(deg)": 53.0,
        "Latitude(deg)": 19.43687831161705,
        "Longitude(deg)": -140.85390164748972,
        "Mean Anomaly(deg)": 155.42150564623728,
        "RAAN(deg)": 154.99325598899287,
        "Satellite Name": "Starlink Shell 1 691",
        "Satellite Number": 691,
        "Semi-Major Axis(m)": 6931778.249405717,
        "Time(s)": 130
    },
    {
        "Altitude(m)": 553738.593495928,
        "Argument of Periapsis(deg)": 0.0048800987131573164,
        "Eccentricity": 0.0,
        "Inclination(deg)": 53.0,
        "Latitude(deg)": 18.950718112201702,
        "Longitude(deg)": -140.47304839937158,
        "Mean Anomaly(deg)": 156.04833684979397,
        "RAAN(deg)": 154.99273721891538,
        "Satellite Name": "Starlink Shell 1 691",
        "Satellite Number": 691,
        "Semi-Major Axis(m)": 6931778.249405717,
        "Time(s)": 140
    },
    {
        "Altitude(m)": 553705.0347113331,
        "Argument of Periapsis(deg)": 0.005228677192668553,
        "Eccentricity": 0.0,
        "Inclination(deg)": 53.0,
        "Latitude(deg)": 18.463579530749747,
        "Longitude(deg)": -140.09463563946426,
        "Mean Anomaly(deg)": 156.67516805335075,
        "RAAN(deg)": 154.99221844883792,
        "Satellite Name": "Starlink Shell 1 691",
        "Satellite Number": 691,
        "Semi-Major Axis(m)": 6931778.249405717,
        "Time(s)": 150
    },
    {
        "Altitude(m)": 553673.680956277,
        "Argument of Periapsis(deg)": 0.00557725567217979,
        "Eccentricity": 0.0,
        "Inclination(deg)": 53.0,
        "Latitude(deg)": 17.97549479359195,
        "Longitude(deg)": -139.71858689752398,
        "Mean Anomaly(deg)": 157.30199925690744,
        "RAAN(deg)": 154.99169967876043,
        "Satellite Name": "Starlink Shell 1 691",
        "Satellite Number": 691,
        "Semi-Major Axis(m)": 6931778.249405717,
        "Time(s)": 160
    },
    {
        "Altitude(m)": 553644.5692048024,
        "Argument of Periapsis(deg)": 0.0059258341516910265,
        "Eccentricity": 0.0,
        "Inclination(deg)": 53.0,
        "Latitude(deg)": 17.486495591161386,
        "Longitude(deg)": -139.34482718298264,
        "Mean Anomaly(deg)": 157.92883046046416,
        "RAAN(deg)": 154.99118090868296,
        "Satellite Name": "Starlink Shell 1 691",
        "Satellite Number": 691,
        "Semi-Major Axis(m)": 6931778.249405717,
        "Time(s)": 170
    },
    {
        "Altitude(m)": 553617.7354496602,
        "Argument of Periapsis(deg)": 0.006274412631202263,
        "Eccentricity": 0.0,
        "Inclination(deg)": 53.0,
        "Latitude(deg)": 16.996613097598686,
        "Longitude(deg)": -138.9732824546082,
        "Mean Anomaly(deg)": 158.55566166402085,
        "RAAN(deg)": 154.9906621386055,
        "Satellite Name": "Starlink Shell 1 691",
        "Satellite Number": 691,
        "Semi-Major Axis(m)": 6931778.249405717,
        "Time(s)": 180
    }
]